Satellite: CHASQUI-1
Catalog number: 40117
Epoch time:      14261.80048677
Element set:     104
Inclination:      051.6477 deg
RA of node:       355.2921 deg
Eccentricity:    0.0003036
Arg of perigee:   093.3719 deg
Mean anomaly:     352.0525 deg
Mean motion:   15.53344370 rev/day
Decay rate:     6.1987e-04 rev/day^2
Epoch rev:             482
Checksum:              284

/EX



From ray.hoad at mypbmail.com  Thu Sep 18 21:53:23 2014
From: ray.hoad at mypbmail.com (Ray Hoad)
Date: Thu, 18 Sep 2014 16:53:23 -0500
Subject: [keps] orb14261.2l.amsat
Message-ID: <1D2315ECE4264AC48B9E09A491EEB5A8@ray45af0265077>

SB KEPS @ AMSAT  $ORB14261.N
2Line Orbital Elements 14261.AMSAT

HR AMSAT ORBITAL ELEMENTS FOR AMATEUR SATELLITES IN NASA FORMAT
FROM WA5QGD FORT WORTH,TX September 18, 2014
BID: ORB14261.N

DECODE 2-LINE ELSETS WITH THE FOLLOWING KEY:
1 AAAAAU 00  0  0 BBBBB.BBBBBBBB  .CCCCCCCC  00000-0  00000-0 0  DDDZ
2 AAAAA EEE.EEEE FFF.FFFF GGGGGGG HHH.HHHH III.IIII JJ.JJJJJJJJKKKKKZ
KEY: A-CATALOGNUM B-EPOCHTIME C-DECAY D-ELSETNUM E-INCLINATION F-RAAN
G-ECCENTRICITY H-ARGPERIGEE I-MNANOM J-MNMOTION K-ORBITNUM Z-CHECKSUM

TO ALL RADIO AMATEURS BT

AO-07
1 07530U 74089B   14259.98430331 -.00000032  00000-0  70021-4 0   626
2 07530 101.4829 238.8271 0012328 114.6971 279.6680 12.53607124823022
FO-29
1 24278U 96046B   14260.60027075 -.00000004  00000-0  29931-4 0  4659
2 24278 098.5148 261.7059 0351226 057.9953 085.8131 13.53029412893160
SO-33
1 25509U 98061B   14260.45374693  .00001052  00000-0  19305-3 0  8379
2 25509 031.4354 357.5711 0349365 202.8237 238.8887 14.29617508830363
RS-22
1 27939U 03042A   14261.37798940  .00000983  00000-0  19025-3 0  8573
2 27939 097.8175 070.9385 0013449 167.2279 192.9306 14.65330778586379
HO-68
1 36122U 09072B   14261.14184612 -.00000043  00000-0  00000 0 0  9462
2 36122 100.2392 310.1436 0007612 025.7769 334.3721 13.16318197228660
AO-73
1 39444U 13066AE  14260.67439612  .00002305  00000-0  31262-3 0  2485
2 39444 097.7640 328.1566 0060485 303.7132 055.8318 14.78596739 43132
EO-79
1 40025U 14033R   14261.25210219  .00002990  00000-0  35247-3 0  2524
2 40025 097.9719 156.0480 0014184 001.1589 358.9649 14.85460661 13404
UO-11
1 14781U 84021B   14260.75438635  .00000925  00000-0  12394-3 0  5994
2 14781 097.8428 319.0339 0007810 231.6715 128.3796 14.81737554641675
AO-16
1 20439U 90005D   14261.43752064  .00000143  00000-0  68924-4 0  1147
2 20439 098.5122 197.0393 0009903 239.7813 238.0995 14.32387909287833
LO-19
1 20442U 90005G   14260.89861877  .00000127  00000-0  62635-4 0   507
2 20442 098.4831 196.8858 0011038 229.8312 130.1906 14.32587757287952
AO-27
1 22825U 93061C   14260.84817177  .00000131  00000-0  68421-4 0  7611
2 22825 098.6705 206.4694 0008852 034.0798 024.6389 14.29746194 94025
IO-26
1 22826U 93061D   14261.44229197  .00000128  00000-0  66640-4 0  5196
2 22826 098.6648 207.2658 0009185 024.6961 335.4659 14.30049686 94249
GO-32
1 25397U 98043D   14261.15839478  .00000075  00000-0  51358-4 0  4419
2 25397 098.4797 215.7253 0002156 070.0820 357.6331 14.23461339841094
NO-44
1 26931U 01043C   14261.47729092  .00000119  00000-0  77894-4 0  6967
2 26931 067.0518 157.8863 0007335 277.1402 082.8864 14.30150490676944
SO-50
1 27607U 02058C   14261.04403291  .00000841  00000-0  14550-3 0  5036
2 27607 064.5560 309.2541 0059095 345.6273 014.3144 14.73908457631164
CO-55
1 27844U 03031E   14260.49662053  .00000298  00000-0  15573-3 0   152
2 27844 098.6994 267.9442 0009723 016.1409 137.0108 14.21557584581699
CO-57
1 27848U 03031J   14260.99533332  .00000264  00000-0  14108-3 0  9579
2 27848 098.7087 268.1977 0009723 021.4862 032.2443 14.21238094581684
AO-51
1 28375U 04025K   14260.80882845  .00000302  00000-0  10215-3 0  9337
2 28375 098.2586 204.6006 0084235 072.9203 288.1192 14.41427359537251
CP3
1 31129U 07012N   14260.94953090  .00001418  00000-0  31912-3 0  8451
2 31129 097.9444 234.2865 0099667 082.3287 346.8346 14.54844537393523
CO-65
1 32785U 08021C   14260.46274853  .00001896  00000-0  22524-3 0   542
2 32785 097.6906 308.6909 0012578 241.5094 242.3299 14.85538783345721
PRISM
1 33493U 09002B   14261.51113300  .00005437  00000-0  56808-3 0  2971
2 33493 098.2542 081.1935 0018385 136.0425 224.2244 14.90006555306078
SOHLA-1
1 33496U 09002E   14260.43070444  .00000598  00000-0  10597-3 0  4548
2 33496 098.1810 021.6461 0005177 316.2844 084.4380 14.70892048303075
TISAT-1
1 36799U 10035E   14261.21873920  .00003700  00000-0  42832-3 0  5560
2 36799 098.0177 353.9364 0014074 023.5129 336.6740 14.86068918226537
STUDSAT
1 36801U 10035G   14260.82386723  .00016715  00000-0  14021-2 0  8875
2 36801 098.0372 003.4959 0008450 345.5732 127.3553 14.98419142226992
ALMASAT-1
1 38078U 12006B   14260.80094750  .00026616  33330-5  53671-3 0  1435
2 38078 069.4685 195.1110 0579126 268.5459 183.2603 14.54525569135089
XATCOBEO
1 38082U 12006F   14243.34478676  .13583328  43697-5  37939-3 0  5637
2 38082 069.3815 097.0364 0033293 225.1799 135.4582 16.41261006136239
CUBEBUG-1
1 39153U 13018D   14261.52436101  .00002030  00000-0  28824-3 0  4829
2 39153 098.0359 341.6235 0018755 051.7680 308.5218 14.77937811 75348
ESTCUBE-1
1 39161U 13021C   14261.47087714  .00001650  00000-0  28211-3 0  4803
2 39161 098.0914 341.6670 0011479 098.2614 261.9897 14.70173149 73304
DUCHIFAT-1
1 40021U 14033M   14261.37874151  .00003967  00000-0  46325-3 0  2584
2 40021 097.9718 156.2151 0015233 002.4656 357.6572 14.85645564 13410
NANOSATCBR1
1 40024U 14033Q   14261.51969821  .00003532  00000-0  41463-3 0  2487
2 40024 097.9706 156.3191 0014031 359.7040 000.4125 14.85521827 13439
DTUSAT-2
1 40030U 14033W   14261.40924870  .00002675  00000-0  31899-3 0  2453
2 40030 097.9691 156.1447 0012884 355.4247 004.6826 14.85085908 13425
ANTELSAT
1 40034U 14033AA  14261.50179187  .00002251  00000-0  36169-3 0  2524
2 40034 097.9664 154.2857 0060479 269.6288 089.7979 14.71396907 13328
MET-2/21
1 22782U 93055A   14261.49142264  .00000059  00000-0  40327-4 0  1636
2 22782 082.5457 099.2784 0022113 006.8582 054.7725 13.83743608 63025
OKEAN-4
1 23317U 94066A   14261.15926567  .00001195  00000-0  13446-3 0  6439
2 23317 082.5410 340.7562 0021756 148.7261 245.7946 14.85712398 76913
NOAA-14
1 23455U 94089A   14261.26835788  .00000007  00000-0  26782-4 0  9019
2 23455 098.7744 343.0336 0010461 132.2516 300.7363 14.13987027 17107
NOAA-15
1 25338U 98030A   14261.48157111  .00000182  00000-0  95762-4 0  3384
2 25338 098.7590 255.1897 0009797 232.6932 240.1926 14.25468771850133
RESURS
1 25394U 98043A   14261.51876817  .00000012  00000-0  23200-4 0  7503
2 25394 098.4245 222.0102 0001522 040.5997 067.7315 14.24399022841604
FENGYUN1
1 25730U 99025A   14261.45749155  .00002103  00000-0  11690-2 0  2400
2 25730 098.9176 222.0099 0020738 203.5677 271.6018 14.12089981790681
OKEAN-0
1 25860U 99039A   14261.02015888  .00000847  00000-0  13233-3 0  3546
2 25860 098.0543 224.3944 0002039 108.1328 300.1358 14.75391685815842
NOAA-16
1 26536U 00055A   14261.40772013  .00000040  00000-0  45834-4 0  8351
2 26536 098.9813 322.1325 0009470 280.2794 079.7310 14.13037334721277
NOAA-17
1 27453U 02032A   14261.45503770  .00000167  00000-0  89051-4 0  7273
2 27453 098.3197 256.2820 0010567 258.0368 101.9628 14.24776959635966
NOAA-18
1 28654U 05018A   14261.50157287  .00000212  00000-0  14102-3 0  2447
2 28654 099.1583 242.9200 0014264 006.9732 100.0257 14.12062769480730
NOAA-19
1 33591U 09005A   14261.48039315  .00000313  00000-0  19606-3 0  3819
2 33591 098.9527 206.2718 0013425 212.4879 256.0300 14.11762396289158
HUBBLE
1 20580U 90037B   14260.14219856  .00003065  00000-0  19479-3 0  1127
2 20580 028.4698 152.5176 0002909 187.0819 298.6454 15.05745462138598
ISS
1 25544U 98067A   14261.70339876  .00018606  00000-0  32830-3 0  1056
2 25544 051.6471 356.0790 0002430 111.4897 005.3280 15.50422422905836
CO-58
1 28895U 05043F   14261.49760694  .00000852  00000-0  17824-3 0  8701
2 28895 097.8286 098.5040 0018659 078.0398 282.2895 14.62024536473883
FALCON
1 30776U 07006E   14260.39920237  .00009961  00000-0  48926-3 0  9553
2 30776 035.4281 262.4116 0000645 340.4171 130.1318 15.17373289414748
MAST
1 31126U 07012K   14260.81268446  .00001031  00000-0  23401-3 0  1445
2 31126 097.9246 236.9289 0093186 066.0075 344.2809 14.55388326393866
CAPE1
1 31130U 07012P   14261.42508656  .00001287  00000-0  29205-3 0  1506
2 31130 097.9459 234.2821 0100236 082.3202 278.9366 14.54585757393360
COMPASS
1 32787U 08021E   14260.75710488  .00003310  00000-0  36306-3 0   372
2 32787 097.6931 311.6138 0012737 230.4292 129.5801 14.88326622345953
AAUSAT2
1 32788U 08021F   14261.11919610  .00003457  00000-0  37201-3 0   256
2 32788 097.6938 313.0679 0012334 226.9434 133.0751 14.89080001346075
DO-64
1 32789U 08021G   14260.39963137  .00008861  00000-0  82920-3 0   666
2 32789 097.7131 319.7846 0011456 210.4099 278.2966 14.94268785346264
CO-66
1 32791U 08021J   14260.39551160  .00003294  00000-0  37406-3 0   190
2 32791 097.6925 309.8309 0013283 236.2884 123.7067 14.86896794345756
RS-30
1 32953U 08025A   14261.43405291  .00000010  00000-0  00000 0 0  2981
2 32953 082.5114 143.2506 0018680 317.8673 042.0969 12.43050421286844
METEOR-M
1 35865U 09049A   14261.39137281  .00000004  00000-0  20904-4 0  9002
2 35865 098.5403 305.9355 0002259 165.4147 194.7109 14.21929365259586
RS-38
1 35869U 09049E   14261.68944980  .00000075  00000-0  52881-4 0  8084
2 35869 098.5310 305.9779 0004407 170.9816 189.1447 14.22226757259666
JUGNU
1 37839U 11058B   14260.80669779  .00000427  00000-0  86387-4 0  6930
2 37839 019.9625 053.5844 0019100 285.5939 183.4250 14.12336211151661
SRMSAT
1 37841U 11058D   14260.86860047  .00000406  00000-0  78854-4 0  6948
2 37841 019.9727 074.3920 0011762 222.5386 282.5572 14.10373442151467
RAX-2
1 37853U 11061D   14246.46374243  .00005349  00000-0  36591-3 0  9038
2 37853 101.7074 313.4726 0214620 190.2077 294.9792 14.90101173154318
AUBIESAT
1 37854U 11061E   14261.12478852  .00012920  00000-0  83693-3 0  8969
2 37854 101.7105 337.3281 0211019 144.4304 279.9237 14.91850869156568
HRBE
1 37855U 11061F   14260.81094121  .00012820  00000-0  84065-3 0  9131
2 37855 101.7097 336.0794 0213699 146.9430 214.5343 14.91068654156473
RS-39
1 38051U 11062C   14261.71815191  .00256456  00000-0  13072-2 0  9212
2 38051 051.6239 106.9011 0008326 227.0087 255.0649 15.80072406148780
E-STAR
1 38079U 12006C   14261.71511273  .00106598  59849-5  10260-2 0  9728
2 38079 069.4519 102.6256 0321338 219.0242 138.7208 15.22242870137637
GOLIAT
1 38085U 12006J   14261.71855723  .00088294  51443-5  92521-3 0  3602
2 38085 069.4530 112.1161 0349239 223.5460 204.9999 15.14984731137385
HORYU-2
1 38340U 12025D   14261.51380571  .00001940  00000-0  31153-3 0  9666
2 38340 098.2685 220.3508 0011243 235.4093 124.6040 14.72788396125533
RS-40
1 38735U 12041C   14260.63935088  .00000024  00000-0  10000-3 0  6772
2 38735 082.4723 229.8876 0018324 054.8764 305.4027 12.42561050 97067
PROITERES
1 38756U 12047B   14261.46620220  .00000884  00000-0  13893-3 0  2168
2 38756 098.2275 351.2852 0013730 088.2954 271.9827 14.75093832108939
BEESAT-3
1 39134U 13015E   14260.90560543  .00010610  00000-0  72250-3 0  7024
2 39134 064.8617 204.8945 0033720 290.7796 068.9705 15.06217995 77623
BEESAT-2
1 39136U 13015G   14261.20972414  .00008847  00000-0  61658-3 0  6853
2 39136 064.8646 204.7161 0033819 290.5460 069.2031 15.05485741 77655
LO-75
1 39382U 13064C   14261.36341318  .00205220  00000-0  22277-2 0  4046
2 39382 040.4876 247.3705 0022061 190.8491 169.1829 15.61717198 46526
ZACUBE-1
1 39417U 13066B   14261.44832952  .00001692  00000-0  23267-3 0  4054
2 39417 097.7634 328.8357 0061031 301.1692 058.3585 14.78347465 44473
TRITON-1
1 39427U 13066M   14260.22531902  .00001401  00000-0  24170-3 0  2556
2 39427 097.7539 321.6011 0117559 318.1525 041.0738 14.65588579 43877
DELFIN3XT
1 39428U 13066N   14260.75509760  .00002285  00000-0  39995-3 0  2600
2 39428 097.7515 321.0532 0126919 319.1844 039.9861 14.63618023 43878
GOMX-1
1 39430U 13066Q   14261.16110969  .00001370  00000-0  26793-3 0  8161
2 39430 097.7454 318.4842 0155250 326.1240 033.0118 14.57025259 43758
MO-76
1 39436U 13066W   14260.44715602  .00014023  00000-0  13807-2 0  3325
2 39436 097.7753 332.7191 0024355 304.5381 055.2703 14.91955224 44624
LO-74
1 39440U 13066AA  14260.64230915  .00001764  00000-0  26602-3 0  2562
2 39440 097.7615 325.6569 0083518 308.2282 051.1439 14.73276524 44195
PUCPSAT-1
1 39442U 13066AC  14261.14279286  .00003247  00000-0  37004-3 0  2559
2 39442 097.7716 332.2872 0033459 302.0994 057.6871 14.86448939 43433
SHINAISAT
1 39572U 14009A   14260.99470509  .00091158  00000-0  49005-3 0  2927
2 39572 065.0047 078.7608 0021168 275.3835 084.4985 15.79421921 31718
TEIKYOSAT
1 39576U 14009E   14261.59022591  .00175160  17661-4  61518-3 0  3062
2 39576 065.0026 072.7508 0021549 280.9991 078.8658 15.88659751 31886
CO-77
1 39577U 14009F   14244.78324653  .10543803  76292-5  32273-3 0  3795
2 39577 064.9920 123.7668 0014904 269.7208 091.1897 16.43552757 29380
SPROUT
1 39770U 14029E   14261.80563710  .00000925  00000-0  12092-3 0  1317
2 39770 097.8719 357.5323 0010536 016.7070 343.4495 14.82771638 17415
POPSAT-HIP1
1 40028U 14033U   14261.53133416  .00002693  00000-0  31928-3 0  2668
2 40028 097.9749 156.3481 0015215 357.5639 002.5464 14.85295028 13437
EO-80
1 40032U 14033Y   14261.27577464  .00002631  00000-0  31402-3 0  2578
2 40032 097.9715 156.0154 0012976 353.7990 006.3052 14.85064525 13406
VELOX-1
1 40057U 14034E   14261.52724824  .00002675  00000-0  41288-3 0  2502
2 40057 098.2449 330.0853 0012616 032.4874 327.7106 14.74172005 11830
DAURIA DX 1
1 40071U 14037C   14261.55118141  .00001251  00000-0  17451-3 0  2215
2 40071 098.3942 316.3910 0009886 037.9639 322.2262 14.79598054 10619
UKUBE-1
1 40074U 14037F   14261.50792782  .00002555  00000-0  34070-3 0  2238
2 40074 098.3951 316.4566 0006331 050.0102 310.1662 14.80551819 10613
CHASQUI-1
1 40117U 98067ET  14261.80048677  .00061987  00000-0  96327-3 0  1046
2 40117 051.6477 355.2921 0003036 093.3719 352.0525 15.53344370  4827
/EX



From ray.hoad at mypbmail.com  Fri Sep 26 02:58:02 2014
From: ray.hoad at mypbmail.com (Ray Hoad)
Date: Thu, 25 Sep 2014 21:58:02 -0500
Subject: [keps] orb14268.amsat
Message-ID: <CE9C0DA9D03342D69B03B1E0FBD8D0F2@ray45af0265077>

SB KEPS @ AMSAT  $ORB14268.O
Orbital Elements  14268.OSCAR

HR AMSAT ORBITAL ELEMENTS FOR OSCAR SATELLITES
FROM WA5QGD FORT WORTH,TX September 25, 2014
BID: ORB14268.O
TO ALL RADIO AMATEURS BT

